CSS (TIANHE)            
1 48274U 21035A   23290.99317620  .00023652  00000+0  27061-3 0  9995
2 48274  41.4719 128.2042 0001907 118.0909 242.0123 15.61582754141034
